NORAD_CAT_ID,OBJECT_NAME,OBJECT_TYPE,EPOCH,MEAN_MOTION,ECCENTRICITY,INCLINATION,RA_OF_ASC_NODE,ARG_OF_PERICENTER,MEAN_ANOMALY,BSTAR,MEAN_MOTION_DOT,MEAN_MOTION_DDOT,TLE_LINE0,TLE_LINE1,TLE_LINE2,SEMIMAJOR_AXIS,PERIOD,APOGEE,PERIGEE,DECAYED
52492.0,STARLINK-3916,PAYLOAD,2024-04-16 11:30:07,15.0884522,0.0001337,53.2139,276.5728,99.7321,260.3822,0.00010312,1.354e-05,0.0,0 STARLINK-3916,1 52492U 22049AT  24107.47925282  .00001354  00000-0  10312-3 0  9995,2 52492  53.2139 276.5728 0001337  99.7321 260.3822 15.08845220108051,6917.864,95.437,540.654,538.805,0.0
52492.0,STARLINK-3916,PAYLOAD,2024-04-16 14:40:53,15.08853987,0.0001407,53.2144,275.9787,96.7312,263.384,-8.6275e-05,-1.661e-05,0.0,0 STARLINK-3916,1 52492U 22049AT  24107.61172814 -.00001661  00000-0 -86275-4 0  9991,2 52492  53.2144 275.9787 0001407  96.7312 263.3840 15.08853987107916,6917.838,95.437,540.676,538.729,0.0
52492.0,STARLINK-3916,PAYLOAD,2024-04-16 16:16:16,15.08848257,0.0001479,53.2153,275.682,90.7709,269.3453,0.00016606,2.356e-05,0.0,0 STARLINK-3916,1 52492U 22049AT  24107.67797154  .00002356  00000-0  16606-3 0  9997,2 52492  53.2153 275.6820 0001479  90.7709 269.3453 15.08848257107925,6917.855,95.437,540.743,538.697,0.0
52492.0,STARLINK-3916,PAYLOAD,2024-04-17 11:20:55,15.08833516,0.0001284,53.2132,272.1119,97.407,262.7068,1.6244e-05,-2.9e-07,0.0,0 STARLINK-3916,1 52492U 22049AT  24108.47286093 -.00000029  00000-0  16244-4 0  9996,2 52492  53.2132 272.1119 0001284  97.4070 262.7068 15.08833516108207,6917.9,95.438,540.653,538.877,0.0
52492.0,STARLINK-3916,PAYLOAD,2024-04-17 14:31:41,15.08829587,0.0001784,53.2149,271.5162,113.9411,246.1769,-0.00010536,-1.964e-05,0.0,0 STARLINK-3916,1 52492U 22049AT  24108.60534262 -.00001964  00000-0 -10536-3 0  9992,2 52492  53.2149 271.5162 0001784 113.9411 246.1769 15.08829587108065,6917.912,95.438,541.011,538.543,0.0
52492.0,STARLINK-3916,PAYLOAD,2024-04-17 17:42:28,15.08826852,0.0001271,53.214,270.9209,96.7198,263.3939,-9.7219e-05,-1.834e-05,0.0,0 STARLINK-3916,1 52492U 22049AT  24108.73782553 -.00001834  00000-0 -97219-4 0  9994,2 52492  53.2140 270.9209 0001271  96.7198 263.3939 15.08826852108086,6917.921,95.438,540.665,538.906,0.0
52492.0,STARLINK-3916,PAYLOAD,2024-04-18 11:11:42,15.08835249,0.0001286,53.2157,267.6514,103.2828,256.8307,0.00010339,1.358e-05,0.0,0 STARLINK-3916,1 52492U 22049AT  24109.46646505  .00001358  00000-0  10339-3 0  9997,2 52492  53.2157 267.6514 0001286 103.2828 256.8307 15.08835249108352,6917.895,95.438,540.65,538.87,0.0
52492.0,STARLINK-3916,PAYLOAD,2024-04-18 14:22:28,15.08848299,0.0001371,53.2158,267.0579,95.9616,264.1532,0.00025997,3.853e-05,0.0,0 STARLINK-3916,1 52492U 22049AT  24109.59893898  .00003853  00000-0  25997-3 0  9998,2 52492  53.2158 267.0579 0001371  95.9616 264.1532 15.08848299108211,6917.855,95.437,540.668,538.772,0.0
52492.0,STARLINK-3916,PAYLOAD,2024-04-18 17:33:14,15.0885427,0.0001415,53.2162,266.4622,98.3315,261.7838,0.00027443,4.084e-05,0.0,0 STARLINK-3916,1 52492U 22049AT  24109.73141501  .00004084  00000-0  27443-3 0  9996,2 52492  53.2162 266.4622 0001415  98.3315 261.7838 15.08854270108397,6917.837,95.437,540.681,538.723,0.0
52492.0,STARLINK-3916,PAYLOAD,2024-04-19 14:13:15,15.08842444,0.0001418,53.2162,262.5971,102.5787,257.5364,0.00024575,3.626e-05,0.0,0 STARLINK-3916,1 52492U 22049AT  24110.59254179  .00003626  00000-0  24575-3 0  9992,2 52492  53.2162 262.5971 0001418 102.5787 257.5364 15.08842444108369,6917.873,95.437,540.719,538.757,0.0
52492.0,STARLINK-3916,PAYLOAD,2024-04-19 17:24:01,15.08848082,0.0001463,53.2169,262.0028,81.9178,278.198,0.00032633,4.911e-05,0.0,0 STARLINK-3916,1 52492U 22049AT  24110.72502048  .00004911  00000-0  32633-3 0  9990,2 52492  53.2169 262.0028 0001463  81.9178 278.1980 15.08848082108545,6917.856,95.437,540.733,538.709,0.0
52492.0,STARLINK-3916,PAYLOAD,2024-04-20 09:17:53,15.08831887,0.0001349,53.2167,259.0283,118.5568,241.556,-0.00026169,-4.449e-05,0.0,0 STARLINK-3916,1 52492U 22049AT  24111.38742736 -.00004449  00000-0 -26169-3 0  9998,2 52492  53.2167 259.0283 0001349 118.5568 241.5560 15.08831887108649,6917.905,95.438,540.703,538.837,0.0
52492.0,STARLINK-3916,PAYLOAD,2024-04-20 14:04:03,15.08828844,0.0001454,53.2164,258.1369,100.519,259.5966,-0.00025499,-4.343e-05,0.0,0 STARLINK-3916,1 52492U 22049AT  24111.58614790 -.00004343  00000-0 -25499-3 0  9996,2 52492  53.2164 258.1369 0001454 100.5190 259.5966 15.08828844108514,6917.914,95.438,540.785,538.774,0.0
52492.0,STARLINK-3916,PAYLOAD,2024-04-20 18:50:12,15.08833776,0.0001537,53.2164,257.2445,87.2012,272.9157,-5.9963e-05,-1.242e-05,0.0,0 STARLINK-3916,1 52492U 22049AT  24111.78486892 -.00001242  00000-0 -59963-4 0  9997,2 52492  53.2164 257.2445 0001537  87.2012 272.9157 15.08833776108549,6917.899,95.438,540.828,538.701,0.0
52492.0,STARLINK-3916,PAYLOAD,2024-04-21 13:54:50,15.08845113,0.0001588,53.2159,253.6785,77.2815,282.8355,0.0004083,6.217e-05,0.0,0 STARLINK-3916,1 52492U 22049AT  24112.57975178  .00006217  00000-0  40830-3 0  9992,2 52492  53.2159 253.6785 0001588  77.2815 282.8355 15.08845113108667,6917.865,95.437,540.828,538.631,0.0
52492.0,STARLINK-3916,PAYLOAD,2024-04-21 17:05:36,15.08861997,0.0001429,53.2161,253.0796,84.3165,275.7991,0.0012517,0.00019701,0.0,0 STARLINK-3916,1 52492U 22049AT  24112.71222887  .00019701  00000-0  12517-2 0  9992,2 52492  53.2161 253.0796 0001429  84.3165 275.7991 15.08861997108842,6917.813,95.436,540.667,538.69,0.0
52492.0,STARLINK-3916,PAYLOAD,2024-04-22 08:59:27,15.08851429,0.0001541,53.2162,250.1081,84.3966,275.7202,0.00031533,4.736e-05,0.0,0 STARLINK-3916,1 52492U 22049AT  24113.37462727  .00004736  00000-0  31533-3 0  9996,2 52492  53.2162 250.1081 0001541  84.3966 275.7202 15.08851429108947,6917.845,95.437,540.776,538.644,0.0
52492.0,STARLINK-3916,PAYLOAD,2024-04-22 15:20:59,15.08859544,0.0001677,53.2165,248.92,80.044,280.0741,0.0004235,6.462e-05,0.0,0 STARLINK-3916,1 52492U 22049AT  24113.63958291  .00006462  00000-0  42350-3 0  9998,2 52492  53.2165 248.9200 0001677  80.0440 280.0741 15.08859544108828,6917.821,95.436,540.846,538.526,0.0
52492.0,STARLINK-3916,PAYLOAD,2024-04-23 12:01:01,15.08832968,0.0001448,53.2173,245.0511,94.3619,265.7538,1.9509e-05,2.3e-07,0.0,0 STARLINK-3916,1 52492U 22049AT  24114.50070951  .00000023  00000-0  19509-4 0  9991,2 52492  53.2173 245.0511 0001448  94.3619 265.7538 15.08832968109110,6917.902,95.438,540.769,538.765,0.0
52492.0,STARLINK-3916,PAYLOAD,2024-04-23 13:36:24,15.08832679,0.0001744,53.2177,244.7554,109.21,250.9081,-1.0063e-05,-4.48e-06,0.0,0 STARLINK-3916,1 52492U 22049AT  24114.56694927 -.00000448  00000-0 -10063-4 0  9991,2 52492  53.2177 244.7554 0001744 109.2100 250.9081 15.08832679108967,6917.903,95.438,540.974,538.561,0.0
52492.0,STARLINK-3916,PAYLOAD,2024-04-23 15:11:47,15.08833173,0.0001547,53.2168,244.4562,101.3266,258.79,0.00015234,2.137e-05,0.0,0 STARLINK-3916,1 52492U 22049AT  24114.63319039  .00002137  00000-0  15234-3 0  9996,2 52492  53.2168 244.4562 0001547 101.3266 258.7900 15.08833173108977,6917.901,95.438,540.836,538.696,0.0
52492.0,STARLINK-3916,PAYLOAD,2024-04-24 13:27:11,15.08851554,0.0001588,53.2173,240.2998,88.8362,271.2812,0.00070586,0.00010967,0.0,0 STARLINK-3916,1 52492U 22049AT  24115.56055160  .00010967  00000-0  70586-3 0  9992,2 52492  53.2173 240.2998 0001588  88.8362 271.2812 15.08851554109113,6917.845,95.437,540.809,538.612,0.0
52492.0,STARLINK-3916,PAYLOAD,2024-04-24 15:02:34,15.08862446,0.0001397,53.2169,239.9995,99.2442,260.8708,0.001242,0.00019546,0.0,0 STARLINK-3916,1 52492U 22049AT  24115.62678817  .00019546  00000-0  12420-2 0  9993,2 52492  53.2169 239.9995 0001397  99.2442 260.8708 15.08862446109281,6917.812,95.436,540.643,538.71,0.0
52492.0,STARLINK-3916,PAYLOAD,2024-04-25 13:17:58,15.088466,0.0001472,53.2174,235.8401,107.1745,252.9408,0.00038556,5.855e-05,0.0,0 STARLINK-3916,1 52492U 22049AT  24116.55415159  .00005855  00000-0  38556-3 0  9991,2 52492  53.2174 235.8401 0001472 107.1745 252.9408 15.08846600109422,6917.86,95.437,540.744,538.707,0.0
52492.0,STARLINK-3916,PAYLOAD,2024-04-25 14:53:21,15.08850213,0.0001606,53.2176,235.5393,114.3275,245.7885,0.00055674,8.586e-05,0.0,0 STARLINK-3916,1 52492U 22049AT  24116.62039026  .00008586  00000-0  55674-3 0  9998,2 52492  53.2176 235.5393 0001606 114.3275 245.7885 15.08850213109275,6917.849,95.437,540.825,538.603,0.0
52492.0,STARLINK-3916,PAYLOAD,2024-04-26 13:08:45,15.088491,0.0001708,53.2183,231.3781,108.6199,251.4979,0.00037722,5.722e-05,0.0,0 STARLINK-3916,1 52492U 22049AT  24117.54774964  .00005722  00000-0  37722-3 0  9990,2 52492  53.2183 231.3781 0001708 108.6199 251.4979 15.08849100109576,6917.853,95.437,540.899,538.536,0.0
52492.0,STARLINK-3916,PAYLOAD,2024-04-26 14:44:08,15.0884588,0.0001273,53.2165,231.0819,107.4756,252.6375,0.00057145,8.82e-05,0.0,0 STARLINK-3916,1 52492U 22049AT  24117.61398782  .00008820  00000-0  57145-3 0  9991,2 52492  53.2165 231.0819 0001273 107.4756 252.6375 15.08845880109426,6917.862,95.437,540.608,538.847,0.0
52492.0,STARLINK-3916,PAYLOAD,2024-04-27 12:59:32,15.08842417,0.0001816,53.2167,226.9109,93.595,266.525,0.00016228,2.296e-05,0.0,0 STARLINK-3916,1 52492U 22049AT  24118.54134885  .00002296  00000-0  16228-3 0  9994,2 52492  53.2167 226.9109 0001816  93.5950 266.5250 15.08842417109729,6917.873,95.437,540.994,538.482,0.0
52492.0,STARLINK-3916,PAYLOAD,2024-04-27 14:34:55,15.08854602,0.0001508,53.2172,226.6197,97.2348,262.8816,0.00045703,6.996e-05,0.0,0 STARLINK-3916,1 52492U 22049AT  24118.60758579  .00006996  00000-0  45703-3 0  9994,2 52492  53.2172 226.6197 0001508  97.2348 262.8816 15.08854602109578,6917.836,95.437,540.744,538.658,0.0
52492.0,STARLINK-3916,PAYLOAD,2024-04-27 16:10:18,15.08858592,0.0001565,53.2169,226.322,111.4743,248.6416,0.0005217,8.029e-05,0.0,0 STARLINK-3916,1 52492U 22049AT  24118.67382326  .00008029  00000-0  52170-3 0  9999,2 52492  53.2169 226.3220 0001565 111.4743 248.6416 15.08858592109748,6917.824,95.436,540.771,538.606,0.0
